ONEWEB-0201             
1 48241U 21031AH  22185.78571972 -.00000556  00000+0 -15280-2 0  9995
2 48241  87.9029 216.5887 0002183  90.6767 269.4612 13.14743995 58753
ONEWEB-0207             
1 48242U 21031AJ  22185.83699898  .00000197  00000+0  49813-3 0  9999
2 48242  87.9011 216.5539 0002100  84.1294 276.0075 13.14504505 58671
ONEWEB-0208             
1 48243U 21031AK  22185.81373522 -.00000485  00000+0 -13439-2 0  9997
2 48243  87.9002 216.5354 0002605  99.6475 260.4949 13.14502339 58680
ONEWEB-0200             
1 48244U 21031AL  22186.38673835  .00000243  00000+0  62056-3 0  9991
2 48244  87.9009 216.4106 0002630  98.8531 261.2896 13.14504908 58699
ONEWEB-0217             
1 48245U 21031AM  22186.17530442 -.00000089  00000+0 -27330-3 0  9991
2 48245  87.9012 216.4777 0002643  98.9690 261.1739 13.14504467 58616
ONEWEB-0211             
1 48767U 21045A   22185.90801337  .00000166  00000+0  40580-3 0  9995
2 48767  87.9089 186.3693 0002137 100.1623 259.9748 13.15547398 54657
ONEWEB-0223             
1 48768U 21045B   22186.53759581  .00000117  00000+0  27713-3 0  9998
2 48768  87.9098 186.2147 0002130 106.6029 253.5335 13.15549610 55860
ONEWEB-0230             
1 48769U 21045C   22185.90166078 -.00000492  00000+0 -13406-2 0  9993
2 48769  87.9130 186.3533 0001892  98.8497 261.2848 13.15546007 54909
ONEWEB-0237             
1 48770U 21045D   22185.73899575 -.00000089  00000+0 -26952-3 0  9994
2 48770  87.9120 186.2637 0001740 107.1050 253.0271 13.15547221 54600
ONEWEB-0235             
1 48771U 21045E   22185.93970641 -.00000083  00000+0 -25416-3 0  9999
2 48771  87.9140 186.2585 0001824 121.9089 238.2219 13.15548847 54628
ONEWEB-0242             
1 48772U 21045F   22185.93335822  .00000015  00000+0  45045-5 0  9991
2 48772  87.9091 186.3243 0001711  97.3071 262.8253 13.15546463 54665
ONEWEB-0241             
1 48773U 21045G   22185.92068923  .00000147  00000+0  35632-3 0  9991
2 48773  87.9081 186.3046 0002489 103.0294 257.1114 13.15547443 54573
ONEWEB-0243             
1 48774U 21045H   22186.56084330 -.00000072  00000+0 -22595-3 0  9996
2 48774  87.9141 186.1860 0001647 105.5681 254.5632 13.15549204 55816
ONEWEB-0222             
1 48775U 21045J   22185.71364340 -.00000199  00000+0 -56300-3 0  9996
2 48775  87.9137 186.3785 0002147 100.7069 259.4303 13.15549370 54613
ONEWEB-0244             
1 48776U 21045K   22185.90063655  .00000748  00000+0  19533-2 0  9997
2 48776  87.9078 186.2964 0001379 104.5577 255.5706 13.15548933 55202
ONEWEB-0247             
1 48777U 21045L   22186.56716064 -.00000453  00000+0 -12363-2 0  9999
2 48777  87.9090 186.1531 0001867 115.7997 244.3327 13.15547980 55866
ONEWEB-0245             
1 48778U 21045M   22185.72633169 -.00000124  00000+0 -36375-3 0  9996
2 48778  87.9144 186.3133 0002493  96.8420 263.2994 13.15548381 54598
ONEWEB-0229             
1 48779U 21045N   22185.71998340 -.00000176  00000+0 -50034-3 0  9996
2 48779  87.9141 186.3065 0002144 103.1578 256.9791 13.15547946 54623
ONEWEB-0228             
1 48780U 21045P   22186.49533895 -.00000060  00000+0 -19295-3 0  9990
2 48780  87.9118 186.1703 0001843  96.2751 263.8589 13.15547631 55776
ONEWEB-0232             
1 48781U 21045Q   22186.26085106  .00000243  00000+0  61221-3 0  9990
2 48781  87.9028 186.3692 0002285  95.1275 265.0116 13.15545400 56050
ONEWEB-0231             
1 48782U 21045R   22185.93547749  .00000054  00000+0  10935-3 0  9996
2 48782  87.9003 186.3605 0001855 106.3640 253.7694 13.15551409 54588
ONEWEB-0234             
1 48783U 21045S   22186.26506252 -.00000038  00000+0 -13373-3 0  9991
2 48783  87.9094 186.2568 0002298  91.7365 268.4028 13.15547603 55899
ONEWEB-0238             
1 48784U 21045T   22186.27669307  .00000074  00000+0  16230-3 0  9997
2 48784  87.9127 186.2746 0002308  90.9509 269.1886 13.15547436 55791
ONEWEB-0240             
1 48785U 21045U   22186.52704377  .00000166  00000+0  40734-3 0  9991
2 48785  87.9087 186.1971 0002516 106.0414 254.0993 13.15547705 55848
ONEWEB-0246             
1 48786U 21045V   22186.52281322  .00000189  00000+0  46759-3 0  9990
2 48786  87.9080 186.2046 0001855 103.9931 256.1405 13.15549241 55715
ONEWEB-0210             
1 48787U 21045W   22186.26927147 -.00000067  00000+0 -21156-3 0  9995
2 48787  87.9087 186.2566 0001281 111.7685 248.3582 13.15551098 55730
ONEWEB-0214             
1 48788U 21045X   22185.89955529  .00000033  00000+0  54849-4 0  9996
2 48788  87.9097 186.3543 0001011 102.8717 257.2526 13.15548654 54523
ONEWEB-0221             
1 48789U 21045Y   22186.05802500  .00000139  00000+0  33498-3 0  9999
2 48789  87.9083 186.3131 0002026 100.0058 260.1300 13.15548210 55776
ONEWEB-0213             
1 48790U 21045Z   22186.50169174 -.00000024  00000+0 -97731-4 0  9990
2 48790  87.9150 186.2095 0001873 104.7218 255.4120 13.15547878 55887
ONEWEB-0212             
1 48791U 21045AA  22185.72210438 -.00000203  00000+0 -57222-3 0  9993
2 48791  87.9146 186.3903 0002195  83.3251 276.8129 13.15549715 54640
ONEWEB-0227             
1 48792U 21045AB  22186.01998088 -.00000045  00000+0 -15227-3 0  9994
2 48792  87.9167 186.3265 0002237  98.6942 261.4442 13.15546740 55765
ONEWEB-0226             
1 48793U 21045AC  22185.93759613 -.00000091  00000+0 -27515-3 0  9998
2 48793  87.9143 186.2932 0001511 112.1938 247.9353 13.15548221 54597
ONEWEB-0224             
1 48794U 21045AD  22186.51224945  .00000105  00000+0  24382-3 0  9992
2 48794  87.9076 186.1959 0002532  87.1347 273.0073 13.15550158 55716
ONEWEB-0233             
1 48795U 21045AE  22185.92175497  .00000119  00000+0  28241-3 0  9997
2 48795  87.9148 186.2969 0002329  97.6354 262.5041 13.15547262 54525
ONEWEB-0190             
1 48796U 21045AF  22185.74321978 -.00000009  00000+0 -59066-4 0  9995
2 48796  87.9151 186.3222 0001993 130.8315 229.2988 13.15546398 54581
ONEWEB-0236             
1 48797U 21045AG  22185.91223924  .00000150  00000+0  36394-3 0  9990
2 48797  87.9086 186.3616 0002021  93.5876 266.5485 13.15546914 54496
ONEWEB-0248             
1 48798U 21045AH  22186.53337469  .00000083  00000+0  18541-3 0  9999
2 48798  87.9087 186.2109 0002738 112.8591 247.2828 13.15550012 55850
ONEWEB-0225             
1 48799U 21045AJ  22186.25027485 -.00000035  00000+0 -12629-3 0  9993
2 48799  87.9131 186.2886 0002166 112.1364 247.9996 13.15546742 55846
ONEWEB-0215             
1 48800U 21045AK  22186.52492831  .00000220  00000+0  55118-3 0  9991
2 48800  87.9082 186.2093 0002509 118.3832 241.7551 13.15549262 55730
ONEWEB-0216             
1 48801U 21045AL  22185.92703729  .00000268  00000+0  67865-3 0  9990
2 48801  87.9129 186.3598 0001664  88.4052 271.7269 13.15548301 54546
ONEWEB-0239             
1 48802U 21045AM  22185.93124494  .00000057  00000+0  11621-3 0  9993
2 48802  87.9131 186.3613 0002406 116.6276 243.5101 13.15549671 54582
ONEWEB-0249             
1 48967U 21060A   22185.86887067 -.00000036  00000+0 -12693-3 0  9995
2 48967  87.9125 156.1104 0001903  86.0589 274.0760 13.16596014 49695
ONEWEB-0250             
1 48968U 21060B   22185.87347653 -.00000041  00000+0 -14198-3 0  9997
2 48968  87.9125 156.1124 0002180  96.2633 263.8746 13.16592084 49670
ONEWEB-0251             
1 48969U 21060C   22186.55460839  .00201815  14281-4  50120-3 0  9992
2 48969  87.4088 107.1745 0003010 229.1274 130.9751 15.95829030 58022
ONEWEB-0252             
1 48970U 21060D   22186.43309044  .00000111  00000+0  25706-3 0  9998
2 48970  87.9100 155.9895 0001785  92.7690 267.3646 13.16593567 51108
ONEWEB-0253             
1 48971U 21060E   22186.19588882  .00000028  00000+0  40149-4 0  9997
2 48971  87.9111 156.0601 0001880 101.5939 258.5403 13.16593364 50993
ONEWEB-0254             
1 48972U 21060F   22185.89882203  .00000118  00000+0  27533-3 0  9999
2 48972  87.9109 156.0784 0001835 100.8843 259.2494 13.16593091 49677
ONEWEB-0255             
1 48973U 21060G   22186.46995138 -.00000011  00000+0 -62599-4 0  9992
2 48973  87.9124 156.0410 0002048  87.8180 272.3186 13.16591772 51116
ONEWEB-0256             
1 48974U 21060H   22186.19126942  .00000002  00000+0 -28029-4 0  9991
2 48974  87.9110 156.0548 0001897  76.8155 283.3188 13.16594806 51042
ONEWEB-0257             
1 48975U 21060J   22186.14752832  .00000612  00000+0  15682-2 0  9995
2 48975  87.9119 156.0998 0001764  89.9417 270.1916 13.16591516 50991
ONEWEB-0258             
1 48976U 21060K   22185.92184366  .00000060  00000+0  12336-3 0  9993
2 48976  87.9126 156.1430 0002041  90.5987 269.5378 13.16592487 49687
ONEWEB-0259             
1 48977U 21060L   22185.91723504  .00000080  00000+0  17659-3 0  9991
2 48977  87.9128 156.1202 0002155 103.8172 256.3199 13.16595238 49713
ONEWEB-0260             
1 48978U 21060M   22185.91032179  .00000101  00000+0  23029-3 0  9995
2 48978  87.9114 156.1234 0001139  70.6514 289.4740 13.16595941 49693
ONEWEB-0261             
1 48979U 21060N   22185.95176877  .00000005  00000+0 -19227-4 0  9994
2 48979  87.9117 156.1192 0001694  95.4517 264.6807 13.16592063 51058
ONEWEB-0262             
1 48980U 21060P   22186.46534948  .00000022  00000+0  22869-4 0  9994
2 48980  87.9137 155.9671 0002388 103.5535 256.5863 13.16594707 51085
ONEWEB-0263             
1 48981U 21060Q   22186.42157506 -.00000119  00000+0 -34481-3 0  9993
2 48981  87.9139 155.9725 0002026 110.4822 249.6526 13.16594540 51043
ONEWEB-0264             
1 48982U 21060R   22186.45725293  .00000055  00000+0  10920-3 0  9990
2 48982  87.9151 155.9228 0001976  90.9460 269.1897 13.16596202 51044
ONEWEB-0266             
1 48984U 21060T   22185.87117736 -.00000234  00000+0 -64535-3 0  9996
2 48984  87.9133 156.0972 0002155  85.7852 274.3526 13.16593811 49666
ONEWEB-0267             
1 48985U 21060U   22185.95868763  .00000022  00000+0  23491-4 0  9999
2 48985  87.9119 156.0824 0001572 100.5342 259.5966 13.16595437 49680
